HORYU-2
1 38340U 12025D   15274.86572400  .00001060  00000-0  16727-3 0  9992
2 38340  98.3258 247.6299 0013088 113.9783 246.2796 14.74514158181259
RS-40
1 38735U 12041C   15274.71702991  .00000040  00000-0  21992-3 0  9999
2 38735  82.4807 353.5572 0015745 310.5776  49.3934 12.42570209144146
PROITERES
1 38756U 12047B   15274.84343852  .00000391  00000-0  64760-4 0  9999
2 38756  98.2255  15.9690 0011491 322.3684  37.6715 14.75930352164735
BEESAT-3
1 39134U 13015E   15274.85208488  .00007433  00000-0  42399-3 0  9999
2 39134  64.8721  75.9710 0025245 238.5389 121.3267 15.13186655134837
BEESAT-2
1 39136U 13015G   15273.90398584  .00004886  00000-0  29698-3 0  9999
2 39136 064.8722 082.3153 0025295 237.0324 122.8367 15.11369952134244
ZACUBE-1
1 39417U 13066B   15274.82955190  .00001112  00000-0  14953-3 0  9998
2 39417  97.7189 333.2935 0061101 148.0053 212.4893 14.79918710100406
TRITON-1
1 39427U 13066M   15274.08676016  .00000716  00000-0  12434-3 0  9995
2 39427  97.7036 318.5533 0115381 188.2510 171.6802 14.66807400 99381
DELFIN3XT
1 39428U 13066N   15274.17831838  .00001198  00000-0  20519-3 0  9999
2 39428  97.7048 316.7685 0123624 193.5463 166.2414 14.65653024 99264
GOMX-1
1 39430U 13066Q   15274.57376501  .00000546  00000-0  10999-3 0  9994
2 39430  97.6959 309.9621 0152599 214.1754 144.9541 14.58218961 98887
MO-76
1 39436U 13066W   15274.19193212  .00017089  00000-0  10440-2 0  9994
2 39436  97.7376 351.2050 0021751 103.7855 256.5797 15.10151713101476
LO-74
1 39440U 13066AA  15274.19113230  .00000901  00000-0  13496-3 0  9991
2 39440  97.7128 327.1152 0082324 164.2515 196.1284 14.74717636 99959
PUCPSAT-1
1 39442U 13066AC  15274.48109498  .00001706  00000-0  18567-3 0  9994
2 39442  97.7298 342.0338 0034092 130.5712 229.8482 14.88913749 99687
SPROUT
1 39770U 14029E   15274.11162006  .00002399  00000-0  29333-3 0  9994
2 39770  97.8745   9.5144 0009226 208.7633 151.3072 14.84142860 73343
POPSAT-HIP1
1 40028U 14033U   15274.89940209  .00001036  00000-0  12104-3 0  9996
2 40028  97.9444 175.3672 0013511 187.4149 172.6904 14.87262076 69646
EO-80
1 40032U 14033Y   15274.78330602  .00001218  00000-0  14233-3 0  9996
2 40032  97.9405 174.8216 0011952 181.8933 178.2239 14.86946626 69611
VELOX-1
1 40057U 14034E   15274.70417547  .00001052  00000-0  16024-3 0  9996
2 40057  98.2110 354.5364 0010128 258.2628 101.7443 14.76081219 67590
DAURIA DX 1
1 40071U 14037C   15274.84774711  .00000486  00000-0  70924-4 0  9999
2 40071  98.3503 350.6146 0007462 256.8547 103.1828 14.80514594 66571
UKUBE-1
1 40074U 14037F   15274.88456388  .00001059  00000-0  13936-3 0  9999
2 40074  98.3523 351.7848 0003599 266.5580  93.5207 14.82444483 66641
HODOYOSHI-1
1 40299U 14070B   15274.75491330  .00002802  00000-0  13282-3 0  9998
2 40299  97.4516 354.9501 0014829 117.0226 342.0941 15.20040120 50001
CHUBUSAT-1
1 40300U 14070C   15274.89150351  .00003192  00000-0  15814-3 0  9997
2 40300  97.4487 354.0607 0023183 120.5330 343.7177 15.18252410 49963
QSAT-EOS
1 40301U 14070D   15274.89048071  .00005866  00000-0  28668-3 0  9994
2 40301  97.4442 353.3057 0032514 122.1238 341.4878 15.18148959 49920
TSUBAME
1 40302U 14070E   15274.86582233  .00003263  00000-0  18122-3 0  9998
2 40302  97.4412 351.4414 0043644 127.9607   6.8261 15.13604441 49806
FIREBIRD FU3
1 40377U 15003B   15274.79034831  .00004949  00000-0  24391-3 0  9992
2 40377  99.1064 328.0375 0153277 264.0533  94.3204 15.08831096 36617
FIREBIRD FU4
1 40378U 15003C   15274.78762485  .00004977  00000-0  24501-3 0  9999
2 40378  99.1062 328.0423 0153590 264.0113  94.3590 15.08831646 36611
GRIFEX
1 40379U 15003D   15274.81626355  .00004531  00000-0  22870-3 0  9992
2 40379  99.1082 327.8528 0155139 265.6985  92.6498 15.07897429 36609
LAMBDA-SAT
1 40458U 98067GB  15136.30676273  .20783109  12527-4  14817-2 0  9995
2 40458 051.6075 233.7697 0010355 318.5347 043.1720 16.39926603 21161
NO-84
1 40654U          15274.52314853  .00019595  00000-0  47580-3 0 01391
2 40654 054.9903 118.3236 0240335 149.8850 211.6279 15.16454582020299
NO-83
1 40655U          15274.52817050  .00025749  00000-0  60772-3 0 01452
2 40655 054.9918 117.6947 0235954 150.2526 211.2206 15.17763789020305
DEORBITSAIL
1 40719U 15032E   15274.16886855  .00001522  00000-0  23480-3 0  9998
2 40719  98.0421 162.7657 0017243 356.7464   3.3622 14.74743463 12151
NUDT-PHONESAT
1 40900U 15049B   15274.79534449  .00005496  00000-0  31143-3 0  9995
2 40900  97.4492 282.6977 0014495 233.1455 245.3845 15.13317847  1795
XM-2D
1 40907U 15049J   15274.80552346  .00002044  00000-0  12212-3 0  9992
2 40907  97.4537 282.6951 0014305 206.7478 277.6885 15.12120090  1787
XM-2F
1 40910U 15049M   15274.80692306  .00003132  00000-0  18576-3 0  9995
2 40910  97.4569 282.6980 0015736 205.6656 279.7227 15.11975921  1674
XM-2B
1 40911U 15049N   15274.80551131  .00002307  00000-0  13732-3 0  9998
2 40911  97.4582 282.7023 0014231 206.7930 278.0044 15.12132950  1683
DCBB
1 40912U 15049P   15274.72508566  .00003576  00000-0  20166-3 0  9992
2 40912  97.4573 282.6491 0016223 204.6125 267.0771 15.13705480  1677
TW-1C
1 40926U 15051B   15274.80157966  .00009876  00000-0  34347-3 0  9998
2 40926  97.3110 310.1964 0015118 256.0739 194.3702 15.29806726  1010
TW-1C
1 40928U 15051D   15274.79996284  .00005703  00000-0  19800-3 0  9994
2 40928  97.3043 310.1926 0013171 266.3013 182.6355 15.30086716  1016
OB A PSLV-C30
1 40930U 15052A   15272.72039910 -.00004126  00000-0 -67328-3 0  9991
2 40930   5.9936  19.0146 0012135  12.6829 347.3528 14.76107032   239
OB B PSLV-C30
1 40931U 15052B   15272.72016628  .00000445  00000-0 -27196-4 0  9992
2 40931   5.9996  19.0388 0013165  16.6402 343.4213 14.76347078   222
OB C PSLV-C30
1 40932U 15032C   15272.71993296 -.00005951  00000-0 -92159-3 0  9993
2 40932   6.0063  19.0682 0013757  19.3578 340.6978 14.76573798   225
OB D PSLV-C30
1 40933U 15052D   15272.71976303 -.00001422  00000-0 -28717-3 0  9994
2 40933   6.0014  19.0357 0014384  20.5024 339.5740 14.76741934   221
OB E PSLV-C30
1 40934U 15052E   15272.72055363  .00003575  00000-0  41662-3 0  9993
2 40934   6.0080  19.0525 0011391  17.5351 342.5114 14.75975255   195
OB F PSLV-C30
1 40935U 15052F   15272.72073021  .00010714  00000-0  14328-2 0  9996
2 40935   6.0018  19.0175 0010541  12.9399 347.0894 14.75799588   205
OB G PSLV-C30
1 40936U 15052G   15272.72077914 -.00003213  00000-0 -54851-3 0  9996
2 40936   6.0026  19.0020 0010697  12.4851 347.5496 14.75737372   211
